     2.10           N: GPS NAV DATA                         RINEX VERSION / TYPE
teqc  2009Oct19     Pat Wooten          20100720 00:03:30UTCPGM / RUN BY / DATE
Solaris 5.10|UltraSparc IIIi|cc -xarch=v9 SC5.8|=+|*Sparc   COMMENT
rnw                 Dataflow  processing07/19/2010 00:00:19 COMMENT
                                                            END OF HEADER
 3 10  7 19 14  0  0.0 5.836198106410D-04 5.002220859750D-12 0.000000000000D+00
    8.100000000000D+01-2.409375000000D+01 5.298434986800D-09-3.010295521910D+00
   -1.234933733940D-06 1.336322515270D-02 6.578862667080D-06 5.153716619490D+03
    1.368000000000D+05 1.005828380580D-07-2.802401051440D+00-1.396983861920D-07
    9.276480778890D-01 2.337187500000D+02 1.011425057270D+00-8.191769791520D-09
    3.857303529320D-11 1.000000000000D+00 1.593000000000D+03 0.000000000000D+00
    3.400000000000D+00 0.000000000000D+00-4.656612873080D-09 8.100000000000D+01
    1.296060000000D+05 4.000000000000D+00
13 10  7 19 14  0  0.0 3.014407120650D-04-6.821210263300D-13 0.000000000000D+00
    3.900000000000D+01-1.015625000000D+01 4.077669851320D-09-2.105088007560D+00
   -3.334134817120D-07 4.481054842470D-03 3.846362233160D-06 5.153732036590D+03
    1.368000000000D+05-4.470348358150D-08 5.317998192540D-01 5.774199962620D-08
    9.926691601290D-01 3.234687500000D+02 1.773033104960D+00-7.945330954930D-09
   -1.928651764660D-11 1.000000000000D+00 1.593000000000D+03 0.000000000000D+00
    2.400000000000D+00 0.000000000000D+00-1.071020960810D-08 3.900000000000D+01
    1.296060000000D+05 4.000000000000D+00
20 10  7 19 14  0  0.0 5.318224430080D-05-4.547473508860D-13 0.000000000000D+00
    3.300000000000D+01 8.668750000000D+01 5.127356432120D-09-5.347281277440D-02
    4.285946488380D-06 4.132342175580D-03 6.424263119700D-06 5.153573476790D+03
    1.368000000000D+05-3.166496753690D-08-6.182138533060D-01 7.078051567080D-08
    9.366239156310D-01 2.475000000000D+02 1.316620453320D+00-8.434637050770D-09
    8.857511808060D-11 1.000000000000D+00 1.593000000000D+03 0.000000000000D+00
    2.400000000000D+00 0.000000000000D+00-7.916241884230D-09 3.300000000000D+01
    1.296060000000D+05 4.000000000000D+00
 6 10  7 19 14  0  0.0 5.669994279740D-04-1.443822839060D-11 0.000000000000D+00
    4.300000000000D+01-2.306250000000D+01 5.206645449110D-09-8.047020155260D-01
   -1.152977347370D-06 6.276293424890D-03 6.942078471180D-06 5.153651653290D+03
    1.368000000000D+05-1.396983861920D-07-2.731373938540D+00 2.607703208920D-08
    9.349150151920D-01 2.346562500000D+02-1.008962904700D+00-8.396064015480D-09
    4.214461263510D-11 1.000000000000D+00 1.593000000000D+03 0.000000000000D+00
    2.400000000000D+00 0.000000000000D+00-5.122274160390D-09 4.300000000000D+01
    1.316460000000D+05 4.000000000000D+00
28 10  7 19 14  0  0.0-1.009693369270D-05 1.136868377220D-12 0.000000000000D+00
    6.700000000000D+01-2.656250000000D+01 4.385539818190D-09-1.079321968740D+00
   -1.335516572000D-06 1.603604492270D-02 8.191913366320D-06 5.153673879620D+03
    1.368000000000D+05 2.793967723850D-08 2.591644669930D+00 4.246830940250D-07
    9.710887748650D-01 2.276250000000D+02-1.951317428870D+00-8.047835224640D-09
    1.764359206930D-10 1.000000000000D+00 1.593000000000D+03 0.000000000000D+00
    2.400000000000D+00 0.000000000000D+00-1.071020960810D-08 6.700000000000D+01
    1.317060000000D+05 4.000000000000D+00
 5 10  7 19 14  0  0.0-1.552328467370D-05-3.296918293930D-12 0.000000000000D+00
    7.600000000000D+01 1.053125000000D+02 4.597334354570D-09-1.258731839870D+00
    5.267560482030D-06 1.834232709370D-03 6.664544343950D-06 5.153749177930D+03
    1.368000000000D+05 2.421438694000D-08-5.888921268870D-01-5.401670932770D-08
    9.577521114540D-01 2.440937500000D+02 2.121228289100D-01-8.163911488250D-09
    1.671498196040D-10 1.000000000000D+00 1.593000000000D+03 0.000000000000D+00
    2.400000000000D+00 0.000000000000D+00-8.847564458850D-09 7.600000000000D+01
    1.339260000000D+05 4.000000000000D+00
19 10  7 19 14  0  0.0-5.086604505780D-05-2.955857780760D-12 0.000000000000D+00
    1.400000000000D+01-1.837500000000D+01 4.638050336270D-09-2.435612567650D+00
   -9.126961231230D-07 6.671793642450D-03 7.448717951770D-06 5.153758483890D+03
    1.368000000000D+05-1.043081283570D-07-2.601651310480D+00-1.117587089540D-08
    9.580740572990D-01 2.364375000000D+02-1.175508482820D-01-8.004619138800D-09
   -4.107313943250D-11 1.000000000000D+00 1.593000000000D+03 0.000000000000D+00
    2.400000000000D+00 0.000000000000D+00-1.490116119380D-08 1.400000000000D+01
    1.340460000000D+05 4.000000000000D+00
 7 10  7 19 16  0  0.0-1.758802682160D-06-1.136868377220D-13 0.000000000000D+00
    1.500000000000D+01-6.321875000000D+01 4.320537110570D-09 2.823163485550D+00
   -3.231689333920D-06 3.797181532720D-03 7.392838597300D-06 5.153707191470D+03
    1.440000000000D+05-1.005828380580D-07 1.512238757490D+00 2.421438694000D-08
    9.719291876550D-01 2.449687500000D+02 3.038797491940D+00-7.919258440330D-09
    3.321566928020D-11 1.000000000000D+00 1.593000000000D+03 0.000000000000D+00
    2.400000000000D+00 0.000000000000D+00-1.024454832080D-08 1.500000000000D+01
    1.368060000000D+05 4.000000000000D+00
10 10  7 19 16  0  0.0-4.740478470920D-05-9.094947017730D-13 0.000000000000D+00
    6.600000000000D+01 9.365625000000D+01 4.670551690080D-09-1.342087614420D-01
    5.038455128670D-06 9.205601294520D-03 6.327405571940D-06 5.153536428450D+03
    1.440000000000D+05 1.266598701480D-07-5.634889552800D-01 1.136213541030D-07
    9.527802819570D-01 2.551875000000D+02 6.635955148800D-01-8.345347617230D-09
    1.407201472730D-10 1.000000000000D+00 1.593000000000D+03 0.000000000000D+00
    3.400000000000D+00 0.000000000000D+00-2.793967723850D-09 6.600000000000D+01
    1.368060000000D+05 4.000000000000D+00
23 10  7 19 16  0  0.0 3.623166121540D-04-1.591615728100D-12 0.000000000000D+00
    5.000000000000D+01 1.500000000000D+00 4.555189741940D-09-1.879210743870D+00
   -1.620501279830D-07 6.897533196020D-03 3.840774297710D-06 5.153668766020D+03
    1.440000000000D+05 5.587935447690D-09 4.697308018300D-01-1.806765794750D-07
    9.677176147400D-01 3.137187500000D+02 3.047751666790D+00-8.260344076490D-09
    7.071723137080D-11 1.000000000000D+00 1.593000000000D+03 0.000000000000D+00
    2.400000000000D+00 0.000000000000D+00-2.002343535420D-08 5.000000000000D+01
    1.368060000000D+05 4.000000000000D+00
 6 10  7 19 16  0  0.0 5.668955855070D-04-1.443822839060D-11 0.000000000000D+00
    4.400000000000D+01-1.981250000000D+01 5.307721087890D-09 2.454406257820D-01
   -1.104548573490D-06 6.275259773250D-03 6.671994924550D-06 5.153649560930D+03
    1.440000000000D+05 1.303851604460D-08-2.731433657780D+00-1.229345798490D-07
    9.349145455950D-01 2.416250000000D+02-1.008905733860D+00-8.453923568420D-09
   -1.267909956400D-10 1.000000000000D+00 1.593000000000D+03 0.000000000000D+00
    2.400000000000D+00 0.000000000000D+00-5.122274160390D-09 4.400000000000D+01
    1.368060000000D+05 4.000000000000D+00
 8 10  7 19 16  0  0.0 6.152316927910D-06 1.136868377220D-13 0.000000000000D+00
    4.500000000000D+01-6.693750000000D+01 3.869089734550D-09 2.187653297250D+00
   -3.326684236530D-06 1.125647767910D-02 7.964670658110D-06 5.153680540080D+03
    1.440000000000D+05-9.872019290920D-08 1.581275014430D+00 2.663582563400D-07
    9.933381993800D-01 2.463125000000D+02 3.109102948810D+00-7.717464320510D-09
   -3.607293115380D-11 1.000000000000D+00 1.593000000000D+03 0.000000000000D+00
    3.400000000000D+00 0.000000000000D+00-3.725290298460D-09 4.500000000000D+01
    1.368060000000D+05 4.000000000000D+00
19 10  7 19 16  0  0.0-5.088699981570D-05-2.955857780760D-12 0.000000000000D+00
    3.400000000000D+01-2.506250000000D+01 4.683409368510D-09-1.385676607400D+00
   -1.285225152970D-06 6.672145915220D-03 7.079914212230D-06 5.153755950930D+03
    1.440000000000D+05-8.381903171540D-08-2.601709119150D+00-9.313225746150D-08
    9.580737822700D-01 2.434375000000D+02-1.173560329440D-01-8.028191549260D-09
   -4.643050544550D-11 1.000000000000D+00 1.593000000000D+03 0.000000000000D+00
    2.400000000000D+00 0.000000000000D+00-1.490116119380D-08 3.400000000000D+01
    1.368060000000D+05 4.000000000000D+00
 5 10  7 19 16  0  0.0-1.554703339930D-05-3.296918293930D-12 0.000000000000D+00
    7.700000000000D+01 9.915625000000D+01 4.465900308390D-09-2.082286024260D-01
    5.301088094710D-06 1.835347153250D-03 6.448477506640D-06 5.153751592640D+03
    1.440000000000D+05 5.401670932770D-08-5.889509069350D-01-4.097819328310D-08
    9.577532525300D-01 2.518750000000D+02 2.117540009300D-01-8.168554538800D-09
    1.571494030460D-10 1.000000000000D+00 1.593000000000D+03 0.000000000000D+00
    2.400000000000D+00 0.000000000000D+00-8.847564458850D-09 7.700000000000D+01
    1.368060000000D+05 4.000000000000D+00
13 10  7 19 16  0  0.0 3.014360554520D-04-6.821210263300D-13 0.000000000000D+00
    4.100000000000D+01-5.187500000000D+00 4.039096816020D-09-1.054941808440D+00
   -2.421438694000D-07 4.481407580900D-03 4.198402166370D-06 5.153732053760D+03
    1.440000000000D+05-8.009374141690D-08 5.317422812230D-01-2.048909664150D-08
    9.926687797710D-01 3.217500000000D+02 1.773029375980D+00-8.013548082160D-09
    2.142946405180D-12 1.000000000000D+00 1.593000000000D+03 0.000000000000D+00
    2.400000000000D+00 0.000000000000D+00-1.071020960810D-08 4.100000000000D+01
    1.368060000000D+05 4.000000000000D+00
